#dP2022  8  4  0  0  0.00000000      97 __u+U IGS14 FIT  IAC
## 2221 345600.00000000   900.00000000 59795 0.0000000000000
+  116   C06C07C08C09C10C11C12C13C14C16C19C20C21C22C23C24C25
+        C26C27C28C29C30C32C33C34C35C36C37C38C39C40C41C42C43
+        C44C45C46E01E02E03E04E05E07E08E09E10E11E12E13E14E15
+        E18E19E21E24E25E26E27E30E31E33E34E36G01G02G03G04G05
+        G06G07G08G09G10G11G12G13G14G15G16G17G18G19G20G21G22
+        G23G24G25G26G27G28G29G30G31G32J02J03R01R02R03R04R05
+        R07R08R09R11R12R13R14R15R17R18R19R20R21R24  0  0  0
++         7  7  7  7  7  6  6  7  7  7  5  5  6  5  5  6  6
++         5  6  6  5  6  6  6  5  6  6  6  6  7  6  6  6  6
++         6  6  6  4  4  4  4  4  5  4  4  4  4  4  4  4  4
++         5  4  4  4  4  4  4  4  4  4  4  4  3  4  3  3  4
++         3  3  3  3  3  3  3  4  3  4  4  3  3  3  4  3  3
++         3  3  3  3  3  4  4  3  3  3  9  9  6  6  6  6  6
++         6  6  6  6  6  7  6  6  6  6  7  7  6  6  0  0  0
%c M  cc GPS ccc cccc cccc cccc cccc ccccc ccccc ccccc ccccc
%c cc cc ccc ccc cccc cccc cccc cccc ccccc ccccc ccccc ccccc
%f  1.2500000  1.025000000  0.00000000000  0.000000000000000
%f  0.0000000  0.000000000  0.00000000000  0.000000000000000
%i    0    0    0    0      0      0      0      0         0
%i    0    0    0    0      0      0      0      0         0
/* INFORMATION & ANALYSIS CENTER (IAC)            FINAL DATA
/* S/V CLOCKS ARE ALIGNED TO GNSS TIME                      
/* G:C1WC2W R:C1PC2P E:C1XC5X C:C2IC6I J:C1CC2S             
/* PCV:IGS14_2218 OL/AL:FES2004  NONE     YN ORB:CoN CLK:CoN
*  2022 08 04 23  0  0.00000000
PC06  -1425.560014  32854.692140 -26234.420279    541.134099
PC07 -14004.686569  26990.550052  29183.899660   -522.160792
PC08 -14836.608947  39124.148681  -5899.578050    429.876183
PC09   4794.946422  36442.310086 -19826.301252   -905.692961
PC10  -5904.869602  27592.702369  31518.141414    111.924008
PC11  20471.842825  15256.131102 -11251.382068   -488.806121
PC12  13059.164946  23914.057920   6113.665262   -559.456150
PC13 -10258.862039  39582.575177 -10746.077310     43.645669
PC14  24860.941700   4608.203022 -11859.292352    574.506911
PC16  -3321.838949  30891.327391 -28176.466137    143.110535
PC19 -27662.975652   1965.186779   3018.993529   -359.432516
PC20 -19320.067758  -9471.992124  17760.801228   -965.305327
PC21  -1231.933355  15992.911207 -22821.659009   -121.417945
PC22 -20355.672263  12764.605559 -14173.440976    -34.472152
PC23  15850.831473 -20907.585424   9519.364586   -957.301549
PC24   8815.374226  17080.639368  20237.795769   -968.088634
PC25  17778.016392  -4306.476424  21066.697539   -697.590879
PC26  -3416.687346  26378.714264   8490.613289    699.737287
PC27  -6051.121671 -23550.296734 -13724.249115      0.338611
PC28   9580.545645 -13250.438042 -22613.767941     98.006683
PC29 -20516.035812  -4872.229703  18266.494156    591.017626
PC30 -19033.131610 -20264.791824   2503.437294    501.800611
PC32   1233.269867 -16036.883942  22816.040909   -359.318660
PC33  27667.724805  -2084.223872  -3080.944480   -332.161381
PC34  19452.012543  19675.859525  -3585.034115   -343.398263
PC35 -10192.383517  12553.881832  22728.746639    397.586613
PC36 -17764.017216   3308.199849 -21235.493835   -969.833829
PC37   4923.259205 -26442.634795  -7375.046645   -926.902929
PC38 -18494.669758  37928.694848   2173.871158     14.929630
PC39  -7062.861047  27026.322124 -31495.555617     -0.186052
PC40 -20359.961297  20593.120319  30549.907508     -1.746631
PC41  20715.429190 -12681.111541  13791.667064   -138.785460
PC42  18442.463266  10036.947190 -18353.475650    -58.500214
PC43  20770.064227   5572.139657 -17788.372131      6.828198
PC44   6666.078311  23304.068268  13790.597226      7.220200
PC45 -15659.152934  21185.265241  -9225.703561    826.756131
PC46  -9828.768110 -15524.750859 -20983.164584   -469.176552
PE01 -23802.870415   3638.055207 -17208.353681   -528.515220
PE02  23862.059296  -3778.881765  17099.515928    316.330186
PE03  28106.039396   5634.160575   7412.023377   -586.141900
PE04 -18455.176842   8827.807852 -21385.360856  -1086.464746
PE05  21413.393974  17084.788506 -11217.333590   -156.522858
PE07  -2368.576604 -18428.499450  23045.172670   -693.699502
PE08  18267.542818  -8864.095958  21544.174857   -575.652109
PE09   2468.580575  18292.193005 -23140.767593   -611.713336
PE10  -5826.302889  24987.289788  14754.719291   -505.254620
PE11    875.337830  29116.416071   5219.807595   2756.599732
PE12 -11419.873780  17131.353509  21252.770848    -98.261638
PE13   -446.218205 -28984.003430  -5994.940507    430.111434
PE14  28155.434376  12049.549858  -5019.061382  -1758.919870
PE15  11402.576994 -16983.290413 -21396.141218    728.923013
PE18 -19438.447889 -16073.874818  -4044.645723  -1132.949262
PE19 -28167.051501  -7549.628356  -5072.867218  -4899.258318
PE21 -11602.511906 -12062.219365 -24407.940203   -749.940850
PE24  -9169.835687  22155.101486  17362.691283   -763.022502
PE25  11345.546593  12286.318704  24435.201897   -583.453558
PE26 -12361.321943 -23248.800247  13509.673030  -1457.477567
PE27   8048.546821 -21971.823016 -18115.204460   -360.840504
PE30  23235.520775 -18326.145621   -368.446617   -728.380682
PE31 -22767.962089  18875.232434   1249.732074   -501.108815
PE33 -16459.300255  -4966.232839  24091.566779   -454.106032
PE34  16476.656365   4728.467205 -24147.017281   -489.322855
PE36  11938.542530  23870.875584 -12804.112127   -412.110844
PG01 -13117.458776  10186.715765  20328.051117    308.116331
PG02  14767.089850   8423.493162 -19745.680488   -649.922131
PG03 -23310.798004  12126.460396   3305.315732   -324.420047
PG04 -20077.636443   2445.022076 -17258.705754   -137.268433
PG05  21797.364041  -2169.379607 -15294.409551    -91.692675
PG06   6535.649739  24215.394910  -8565.935584    412.766204
PG07  -6187.287082  23419.917702  -9879.848558    316.289832
PG08 -24178.476630  -3595.654420  10770.031704    -79.114455
PG09 -10174.973636  11936.741986 -21510.479509   -311.761806
PG10   2262.231005 -17477.336703  19922.556474   -516.597588
PG11  12351.554115  15120.566501 -18023.544586    -10.573220
PG12  24298.632312  -9174.971252   5018.703023   -257.239746
PG13  22920.750411  12999.450717   3883.428626    361.755707
PG14  -4502.959223  18154.820863  18821.660758   -110.371296
PG15  24533.858602   1005.387107  10074.292430    -39.879721
PG16 -18788.896228  -4740.095420 -18637.207569   -518.983969
PG17   5454.051055  18210.002583  18959.311165    644.837337
PG18   6282.277493 -23729.884407  -9990.516139     92.006714
PG19  14470.745311  19036.797315  11565.300984    192.903712
PG20  13759.857896   8250.875051 -21131.946274    497.470531
PG21 -15641.517501   -381.948483  22125.117420    160.733773
PG22 -16284.350388 -18702.287390  10169.957253    304.247552
PG23  12598.269784 -19310.972343  13068.755170    -35.740755
PG24  14806.839078  -5999.182642  20863.224058    177.878161
PG25  18637.644940 -17610.034237  -6640.591103    357.172483
PG26 -10941.755588 -11512.403534 -21392.739625    222.008267
PG27 -23384.362942 -13013.384256  -1090.522325    220.409788
PG28   4564.074146  14781.411321  22115.628199    339.316945
PG29  10927.511095 -10471.716694 -21882.912420   -539.946272
PG30    717.555949  26411.486683     11.151320   -535.351377
PG31  -8201.620210 -22557.192284 -10985.042757   -188.435949
PG32  -9329.836942 -18278.922772  17111.542030   -194.931670
PJ02 -30183.804787  29424.548627   6121.322961     -2.649315
PJ03 -24524.690907  24980.576725  28595.945587     -0.443421
PR01  -1309.456809 -11033.410225  22959.623842     12.610753
PR02 -20080.242451  -7522.981176  13905.801123    526.011532
PR03 -25361.955600    343.761721  -2932.135092     61.323356
PR04 -16451.982342   7610.328544 -17925.568046    152.868262
PR05   1405.374986  10828.265646 -23042.279501     97.393495
PR07  25188.804441   -745.083162   3826.115498     38.896134
PR08  16242.578874  -7864.291701  18069.324594    -66.538045
PR09   7794.984172   8792.834632  22655.846998     69.491832
PR11  14896.404787 -20206.280885   4590.419847     31.365276
PR12   5339.793870 -20865.829289 -13623.961664     19.756007
PR13  -6541.756281 -10041.362937 -22525.349554    -25.358431
PR14 -15585.190312   8186.872682 -18431.661861     24.641994
PR15 -14837.170425  20432.022627  -3564.561764     94.362642
PR17 -13289.529316  -4673.708131  21255.166943    549.577189
PR18  -5165.049999  11702.310101  22068.931447     35.966426
PR19   4322.924672  21902.608280  12343.665602   -198.832208
PR20  13402.577586  20191.842884  -7903.753210    -75.927551
PR21  12730.484760   3291.450544 -21871.335220   -322.959832
PR24 -14242.319330 -19372.825049   8494.167009    107.213067
EOF
